EUTELSAT 8 WEST B       
1 40875U 15039B   25360.61283015 -.00000044  00000+0  00000+0 0  9991
2 40875   0.0651  12.1709 0004204 263.5924  32.2080  1.00271395 37923
EUTELSAT 9B             
1 41310U 16005A   25360.36364067  .00000083  00000+0  00000+0 0  9991
2 41310   0.0277  48.2901 0004728 227.4289 319.2953  1.00269907 36382
EUTELSAT 65 WEST A      
1 41382U 16014A   25360.34486895 -.00000254  00000+0  00000+0 0  9993
2 41382   0.0477 347.1965 0002373 291.4205 235.4476  1.00271228 35801
EUTELSAT 117 WEST B     
1 41589U 16038B   25360.94787877  .00000011  00000+0  00000+0 0  9998
2 41589   0.0117 149.0089 0000018 171.2935 359.6124  1.00272383 34931
EUTELSAT 172B           
1 42741U 17029B   25360.71977751  .00000017  00000+0  00000+0 0  9993
2 42741   0.0384 162.2852 0000271  80.0585 284.2379  1.00273653 32004
EUTELSAT 7C             
1 44334U 19034B   25358.61850169  .00000069  00000+0  00000+0 0  9997
2 44334   0.0726 177.7928 0003159  79.9691  65.2631  1.00270796  5083
EUTELSAT 5 WEST B       
1 44624U 19067A   25359.94975102 -.00000021  00000+0  00000+0 0  9996
2 44624   0.0622 345.9649 0003194 287.5339 158.1146  1.00271270 22703
EUTELSAT KONNECT        
1 45027U 20005B   25358.97522397  .00000070  00000+0  00000+0 0  9997
2 45027   0.0690  93.7711 0001571 204.5991 153.6522  1.00267204 22591
